IDEFIX & ARIANE 42P R/B 
1 27422U 02021B   25360.84759759  .00000343  00000+0  14703-3 0  9999
2 27422  98.5804 295.3566 0012693  45.5080 314.7138 14.30960435233608
AQUA                    
1 27424U 02022A   25358.80455341  .00000926  00000+0  19561-3 0  9999
2 27424  98.4055 319.8810 0001809 102.1365 317.5475 14.61757572257795
CZ-4B R/B               
1 27432U 02024C   25361.00547449  .00000046  00000+0  47040-4 0  9994
2 27432  98.8979  49.7261 0049431 228.6395 196.7225 14.14530780218966
MIDORI II (ADEOS-II)    
1 27597U 02056A   25360.85711376  .00000340  00000+0  15180-3 0  9991
2 27597  98.7656 313.8888 0000897 145.2130 214.9111 14.29215280199891
H-2A R/B                
1 27601U 02056E   25360.91940019  .00000495  00000+0  18809-3 0  9994
2 27601  98.3086 319.1130 0070796  19.3907  49.0746 14.33688828203688
CZ-4B R/B               
1 28059U 03049C   25360.96912155  .00000531  00000+0  13324-3 0  9998
2 28059  98.6799 348.0712 0049386  93.5315 267.1531 14.54923302176029
CZ-2C R/B               
1 28222U 04012C   25360.69438409  .00041139  00000+0  57533-3 0  9995
2 28222  97.7395  54.4770 0016636 216.1735 143.8395 15.56562706192897
SL-16 R/B               
1 28353U 04021B   25360.48136900  .00000212  00000+0  13503-3 0  9994
2 28353  71.0004  26.1276 0004538 176.8054 183.3098 14.14580389112481
CZ-4B R/B               
1 28415U 04035C   25360.97345578  .00010193  00000+0  37470-3 0  9993
2 28415  97.3597  31.1282 0031855 224.5771 135.2906 15.27604853168809
CZ-2C R/B               
1 28480U 04046B   25360.70232637  .00000318  00000+0  13342-3 0  9999
2 28480  98.1997 275.2130 0139808  11.2264 349.1983 14.26949181 98090
ARIANE 5 R/B            
1 28499U 04049H   25360.93707774  .00001555  00000+0  17827-3 0  9992
2 28499  98.2530 161.7283 0083566 226.3455 133.0810 14.85049801134996
CZ-2D R/B               
1 28738U 05024B   25360.95641304  .00037340  00000+0  57662-3 0  9992
2 28738  97.3631   8.7836 0003323 304.3469  55.7470 15.54028021128468
